start=new Date('2022-07-29T00:00:00.000Z').valueOf();
sats=[{"RA_OF_ASC_NODE":"67.0436","MEAN_MOTION":"15.06400687","PERIAPSIS":"546.103","EPHEMERIS_TYPE":"0","PERIOD":"95.592","NORAD_CAT_ID":"47842","GP_ID":"209066766","ELEMENT_SET_NO":"999","EPOCH":"2022-07-28T18:05:42.558720","SITE":"AFETR","MEAN_MOTION_DDOT":"0.0000000000000","REV_AT_EPOCH":"7756","OBJECT_NAME":"STARLINK-2434","OBJECT_ID":"2021-018BH","APOAPSIS":"548.320","BSTAR":"-0.00005754000000","CENTER_NAME":"EARTH","ARG_OF_PERICENTER":"80.6009","MEAN_ANOMALY":"279.5161","RCS_SIZE":"LARGE","MEAN_ELEMENT_THEORY":"SGP4","TLE_LINE1":"1 47842U 21018BH  22209.75396480 -.00001139  00000-0 -57540-4 0  9995","SEMIMAJOR_AXIS":"6925.346","LAUNCH_DATE":"2021-03-11","OBJECT_TYPE":"PAYLOAD","MEAN_MOTION_DOT":"-0.00001139","TLE_LINE2":"2 47842  53.0550  67.0436 0001601  80.6009 279.5161 15.06400687 77565","REF_FRAME":"TEME","CLASSIFICATION_TYPE":"U","FILE":"3524113","TIME_SYSTEM":"UTC","DECAY_DATE":null,"COUNTRY_CODE":"US","ECCENTRICITY":"0.00016010","INCLINATION":"53.0550"},{"SITE":"AFETR","EPOCH":"2022-07-28T17:26:33.165600","REV_AT_EPOCH":"7759","MEAN_MOTION_DDOT":"0.0000000000000","APOAPSIS":"548.321","OBJECT_NAME":"STARLINK-2435","OBJECT_ID":"2021-018BJ","BSTAR":"0.00005723200000","MEAN_MOTION":"15.06400949","PERIAPSIS":"546.100","RA_OF_ASC_NODE":"62.1736","PERIOD":"95.592","EPHEMERIS_TYPE":"0","GP_ID":"209065516","NORAD_CAT_ID":"47843","ELEMENT_SET_NO":"999","MEAN_MOTION_DOT":"0.00000571","OBJECT_TYPE":"PAYLOAD","LAUNCH_DATE":"2021-03-11","SEMIMAJOR_AXIS":"6925.346","FILE":"3524113","CLASSIFICATION_TYPE":"U","REF_FRAME":"TEME","TLE_LINE2":"2 47843  53.0544  62.1736 0001604  74.7961 285.3205 15.06400949 77590","INCLINATION":"53.0544","ECCENTRICITY":"0.00016040","COUNTRY_CODE":"US","TIME_SYSTEM":"UTC","DECAY_DATE":null,"MEAN_ANOMALY":"285.3205","ARG_OF_PERICENTER":"74.7961","CENTER_NAME":"EARTH","MEAN_ELEMENT_THEORY":"SGP4","TLE_LINE1":"1 47843U 21018BJ  22209.72677275  .00000571  00000-0  57232-4 0  9992","RCS_SIZE":"LARGE"},{"CENTER_NAME":"EARTH","MEAN_ANOMALY":"279.5394","ARG_OF_PERICENTER":"80.5773","RCS_SIZE":"LARGE","MEAN_ELEMENT_THEORY":"SGP4","TLE_LINE1":"1 47844U 21018BK  22209.79174278 -.00001279  00000-0 -67004-4 0  9991","REF_FRAME":"TEME","TLE_LINE2":"2 47844  53.0547  56.8810 0001581  80.5773 279.5394 15.06401362 77658","FILE":"3524113","CLASSIFICATION_TYPE":"U","OBJECT_TYPE":"PAYLOAD","LAUNCH_DATE":"2021-03-11","SEMIMAJOR_AXIS":"6925.344","MEAN_MOTION_DOT":"-0.00001279","ECCENTRICITY":"0.00015810","COUNTRY_CODE":"US","DECAY_DATE":null,"TIME_SYSTEM":"UTC","INCLINATION":"53.0547","PERIOD":"95.592","EPHEMERIS_TYPE":"0","RA_OF_ASC_NODE":"56.8810","PERIAPSIS":"546.114","MEAN_MOTION":"15.06401362","ELEMENT_SET_NO":"999","GP_ID":"209065767","NORAD_CAT_ID":"47844","MEAN_MOTION_DDOT":"0.0000000000000","REV_AT_EPOCH":"7765","EPOCH":"2022-07-28T19:00:06.576192","SITE":"AFETR","BSTAR":"-0.00006700400000","APOAPSIS":"548.304","OBJECT_NAME":"STARLINK-2446","OBJECT_ID":"2021-018BK"},{"EPOCH":"2022-07-28T19:26:38.793408","SITE":"AFETR","MEAN_MOTION_DDOT":"0.0000000000000","REV_AT_EPOCH":"7766","OBJECT_ID":"2021-018BL","OBJECT_NAME":"STARLINK-2453","APOAPSIS":"548.203","BSTAR":"-0.00002485800000","RA_OF_ASC_NODE":"56.7940","MEAN_MOTION":"15.06401944","PERIAPSIS":"546.212","EPHEMERIS_TYPE":"0","PERIOD":"95.592","NORAD_CAT_ID":"47845","GP_ID":"209066018","ELEMENT_SET_NO":"999","SEMIMAJOR_AXIS":"6925.343","LAUNCH_DATE":"2021-03-11","OBJECT_TYPE":"PAYLOAD","MEAN_MOTION_DOT":"-0.00000652","TLE_LINE2":"2 47845  53.0533  56.7940 0001438  76.4426 283.6723 15.06401944 77666","REF_FRAME":"TEME","FILE":"3524113","CLASSIFICATION_TYPE":"U","DECAY_DATE":null,"TIME_SYSTEM":"UTC","ECCENTRICITY":"0.00014380","COUNTRY_CODE":"US","INCLINATION":"53.0533","CENTER_NAME":"EARTH","ARG_OF_PERICENTER":"76.4426","MEAN_ANOMALY":"283.6723","RCS_SIZE":"LARGE","MEAN_ELEMENT_THEORY":"SGP4","TLE_LINE1":"1 47845U 21018BL  22209.81017122 -.00000652  00000-0 -24858-4 0  9993"},{"EPHEMERIS_TYPE":"0","PERIOD":"95.592","PERIAPSIS":"546.278","MEAN_MOTION":"15.06398305","RA_OF_ASC_NODE":"57.1035","ELEMENT_SET_NO":"999","GP_ID":"209066266","NORAD_CAT_ID":"47846","REV_AT_EPOCH":"7770","MEAN_MOTION_DDOT":"0.0000000000000","SITE":"AFETR","EPOCH":"2022-07-28T17:44:26.070432","BSTAR":"-0.00010969000000","OBJECT_NAME":"STARLINK-2456","OBJECT_ID":"2021-018BM","APOAPSIS":"548.160","ARG_OF_PERICENTER":"76.2441","MEAN_ANOMALY":"283.8699","CENTER_NAME":"EARTH","TLE_LINE1":"1 47846U 21018BM  22209.73919063 -.00001915  00000-0 -10969-3 0  9990","MEAN_ELEMENT_THEORY":"SGP4","RCS_SIZE":"LARGE","CLASSIFICATION_TYPE":"U","FILE":"3524113","TLE_LINE2":"2 47846  53.0548  57.1035 0001359  76.2441 283.8699 15.06398305 77705","REF_FRAME":"TEME","MEAN_MOTION_DOT":"-0.00001915","SEMIMAJOR_AXIS":"6925.354","LAUNCH_DATE":"2021-03-11","OBJECT_TYPE":"PAYLOAD","INCLINATION":"53.0548","TIME_SYSTEM":"UTC","DECAY_DATE":null,"COUNTRY_CODE":"US","ECCENTRICITY":"0.00013590"},{"APOAPSIS":"548.313","OBJECT_NAME":"STARLINK-2258","OBJECT_ID":"2021-021A","BSTAR":"-0.00007861400000","SITE":"AFETR","EPOCH":"2022-07-28T17:52:26.092416","REV_AT_EPOCH":"7700","MEAN_MOTION_DDOT":"0.0000000000000","GP_ID":"209065268","NORAD_CAT_ID":"47860","ELEMENT_SET_NO":"999","PERIAPSIS":"546.131","MEAN_MOTION":"15.06397237","RA_OF_ASC_NODE":"87.0792","PERIOD":"95.592","EPHEMERIS_TYPE":"0","INCLINATION":"53.0529","ECCENTRICITY":"0.00015750","COUNTRY_CODE":"US","DECAY_DATE":null,"TIME_SYSTEM":"UTC","MEAN_MOTION_DOT":"-0.00001452","LAUNCH_DATE":"2021-03-14","OBJECT_TYPE":"PAYLOAD","SEMIMAJOR_AXIS":"6925.357","FILE":"3524113","CLASSIFICATION_TYPE":"U","REF_FRAME":"TEME","TLE_LINE2":"2 47860  53.0529  87.0792 0001575  92.7766 267.3403 15.06397237 77001","MEAN_ELEMENT_THEORY":"SGP4","TLE_LINE1":"1 47860U 21021A   22209.74474644 -.00001452  00000-0 -78614-4 0  9990","RCS_SIZE":"LARGE","MEAN_ANOMALY":"267.3403","ARG_OF_PERICENTER":"92.7766","CENTER_NAME":"EARTH"},{"INCLINATION":"53.0534","COUNTRY_CODE":"US","ECCENTRICITY":"0.00016300","DECAY_DATE":null,"TIME_SYSTEM":"UTC","CLASSIFICATION_TYPE":"U","FILE":"3524113","REF_FRAME":"TEME","TLE_LINE2":"2 47861  53.0534  71.9967 0001630  76.9049 283.2122 15.06408726 77320","MEAN_MOTION_DOT":"0.00001689","LAUNCH_DATE":"2021-03-14","OBJECT_TYPE":"PAYLOAD","SEMIMAJOR_AXIS":"6925.322","MEAN_ELEMENT_THEORY":"SGP4","TLE_LINE1":"1 47861U 21021B   22209.76271349  .00001689  00000-0  13225-3 0  9996","RCS_SIZE":"LARGE","MEAN_ANOMALY":"283.2122","ARG_OF_PERICENTER":"76.9049","CENTER_NAME":"EARTH","BSTAR":"0.00013225000000","APOAPSIS":"548.316","OBJECT_NAME":"STARLINK-2280","OBJECT_ID":"2021-021B","REV_AT_EPOCH":"7732","MEAN_MOTION_DDOT":"0.0000000000000","SITE":"AFETR","EPOCH":"2022-07-28T18:18:18.445536","ELEMENT_SET_NO":"999","GP_ID":"209066520","NORAD_CAT_ID":"47861","PERIOD":"95.592","EPHEMERIS_TYPE":"0","PERIAPSIS":"546.058","MEAN_MOTION":"15.06408726","RA_OF_ASC_NODE":"71.9967"},{"DECAY_DATE":null,"TIME_SYSTEM":"UTC","COUNTRY_CODE":"US","ECCENTRICITY":"0.00016480","INCLINATION":"53.0554","TLE_LINE2":"2 47862  53.0554  66.8041 0001648  86.6499 273.4678 15.06406505 76919","REF_FRAME":"TEME","CLASSIFICATION_TYPE":"U","FILE":"3524059","SEMIMAJOR_AXIS":"6925.329","OBJECT_TYPE":"PAYLOAD","LAUNCH_DATE":"2021-03-14","MEAN_MOTION_DOT":"0.00000988","RCS_SIZE":"LARGE","MEAN_ELEMENT_THEORY":"SGP4","TLE_LINE1":"1 47862U 21021C   22209.80924536  .00000988  00000-0  85181-4 0  9997","CENTER_NAME":"EARTH","ARG_OF_PERICENTER":"86.6499","MEAN_ANOMALY":"273.4678","BSTAR":"0.00008518100000","OBJECT_ID":"2021-021C","OBJECT_NAME":"STARLINK-2291","APOAPSIS":"548.335","MEAN_MOTION_DDOT":"0.0000000000000","REV_AT_EPOCH":"7691","EPOCH":"2022-07-28T19:25:18.799104","SITE":"AFETR","ELEMENT_SET_NO":"999","GP_ID":"209043270","NORAD_CAT_ID":"47862","EPHEMERIS_TYPE":"0","PERIOD":"95.592","RA_OF_ASC_NODE":"66.8041","MEAN_MOTION":"15.06406505","PERIAPSIS":"546.052"},{"PERIOD":"95.592","EPHEMERIS_TYPE":"0","RA_OF_ASC_NODE":"76.9941","MEAN_MOTION":"15.06407394","PERIAPSIS":"546.102","ELEMENT_SET_NO":"999","GP_ID":"209065518","NORAD_CAT_ID":"47863","MEAN_MOTION_DDOT":"0.0000000000000","REV_AT_EPOCH":"7725","EPOCH":"2022-07-28T18:25:36.617088","SITE":"AFETR","BSTAR":"0.00032797000000","APOAPSIS":"548.280","OBJECT_ID":"2021-021D","OBJECT_NAME":"STARLINK-2293","CENTER_NAME":"EARTH","MEAN_ANOMALY":"278.9962","ARG_OF_PERICENTER":"81.1205","RCS_SIZE":"LARGE","TLE_LINE1":"1 47863U 21021D   22209.76778492  .00004608  00000-0  32797-3 0  9998","MEAN_ELEMENT_THEORY":"SGP4","REF_FRAME":"TEME","TLE_LINE2":"2 47863  53.0538  76.9941 0001573  81.1205 278.9962 15.06407394 77256","CLASSIFICATION_TYPE":"U","FILE":"3524113","LAUNCH_DATE":"2021-03-14","OBJECT_TYPE":"PAYLOAD","SEMIMAJOR_AXIS":"6925.326","MEAN_MOTION_DOT":"0.00004608","COUNTRY_CODE":"US","ECCENTRICITY":"0.00015730","TIME_SYSTEM":"UTC","DECAY_DATE":null,"INCLINATION":"53.0538"},{"BSTAR":"0.00017102000000","OBJECT_ID":"2021-021E","OBJECT_NAME":"STARLINK-2304","APOAPSIS":"548.323","REV_AT_EPOCH":"7736","MEAN_MOTION_DDOT":"0.0000000000000","SITE":"AFETR","EPOCH":"2022-07-28T17:55:05.580768","ELEMENT_SET_NO":"999","GP_ID":"209065769","NORAD_CAT_ID":"47864","EPHEMERIS_TYPE":"0","PERIOD":"95.592","PERIAPSIS":"546.044","MEAN_MOTION":"15.06409820","RA_OF_ASC_NODE":"67.1242","INCLINATION":"53.0544","TIME_SYSTEM":"UTC","DECAY_DATE":null,"ECCENTRICITY":"0.00016460","COUNTRY_CODE":"US","CLASSIFICATION_TYPE":"U","FILE":"3524113","TLE_LINE2":"2 47864  53.0544  67.1242 0001646  80.8731 279.2444 15.06409820 77368","REF_FRAME":"TEME","MEAN_MOTION_DOT":"0.00002267","SEMIMAJOR_AXIS":"6925.318","LAUNCH_DATE":"2021-03-14","OBJECT_TYPE":"PAYLOAD","MEAN_ELEMENT_THEORY":"SGP4","TLE_LINE1":"1 47864U 21021E   22209.74659237  .00002267  00000-0  17102-3 0  9994","RCS_SIZE":"LARGE","ARG_OF_PERICENTER":"80.8731","MEAN_ANOMALY":"279.2444","CENTER_NAME":"EARTH"}];
